{"type": "FeatureCollection", "features": [ {"type": "Feature", "properties": {"norad_id": 66656, "name": "2025-274G", "group": "last-30-days", "lat": -28.01195025891791, "lon": 103.21195171150897, "alt_km": 587.4319642019818, "timestamp": "2025-12-26T09:30:52.340595+00:00", "meta": {"OBJECT_NAME": "2025-274G", "OBJECT_ID": "2025-274G", "EPOCH": "2025-12-25T16:29:32.162784", "MEAN_MOTION": 14.92349038, "ECCENTRICITY": 0.00129558, "INCLINATION": 97.7403, "RA_OF_ASC_NODE": 286.6643, "ARG_OF_PERICENTER": 209.015, "MEAN_ANOMALY": 151.035, "EPHEMERIS_TYPE": 0, "CLASSIFICATION_TYPE": "U", "NORAD_CAT_ID": 66656, "ELEMENT_SET_NO": 999, "REV_AT_EPOCH": 433, "BSTAR": 0.00035890142, "MEAN_MOTION_DOT": 3.62e-05, "MEAN_MOTION_DDOT": 0}, "tle": {"line1": "1 66656U 25274G   25359.68717781  .00003620  00000+0  35890-3 0  9996", "line2": "2 66656  97.7403 286.6643 0012955 209.0150 151.0350 14.92349038  4333"}}, "geometry": {"type": "Point", "coordinates": [103.21195171150897, -28.01195025891791]}}, {"type": "Feature", "properties": {"norad_id": 66657, "name": "SPIRONE", "group": "last-30-days", "lat": -46.822173757706736, "lon": 99.03446937924396, "alt_km": 589.2373247516634, "timestamp": "2025-12-26T09:30:52.340605+00:00", "meta": {"OBJECT_NAME": "SPIRONE", "OBJECT_ID": "2025-274H", "EPOCH": "2025-12-25T18:01:04.034496", "MEAN_MOTION": 14.92527899, "ECCENTRICITY": 0.001096, "INCLINATION": 97.74, "RA_OF_ASC_NODE": 286.734, "ARG_OF_PERICENTER": 226.2948, "MEAN_ANOMALY": 133.7364, "EPHEMERIS_TYPE": 0, "CLASSIFICATION_TYPE": "U", "NORAD_CAT_ID": 66657, "ELEMENT_SET_NO": 999, "REV_AT_EPOCH": 434, "BSTAR": 0.00036151357, "MEAN_MOTION_DOT": 3.661e-05, "MEAN_MOTION_DDOT": 0}, "tle": {"line1": "1 66657U 25274H   25359.75074114  .00003661  00000+0  36151-3 0  9997", "line2": "2 66657  97.7400 286.7340 0010960 226.2948 133.7364 14.92527899  4342"}}, "geometry": {"type": "Point", "coordinates": [99.03446937924396, -46.822173757706736]}}, {"type": "Feature", "properties": {"norad_id": 66658, "name": "2025-274J", "group": "last-30-days", "lat": -64.74696592213616, "lon": 90.61815026667189, "alt_km": 589.1248166956202, "timestamp": "2025-12-26T09:30:52.340621+00:00", "meta": {"OBJECT_NAME": "2025-274J", "OBJECT_ID": "2025-274J", "EPOCH": "2025-12-25T17:56:13.034976", "MEAN_MOTION": 14.927091, "ECCENTRICITY": 0.00114637, "INCLINATION": 97.74, "RA_OF_ASC_NODE": 286.7386, "ARG_OF_PERICENTER": 229.5134, "MEAN_ANOMALY": 130.5087, "EPHEMERIS_TYPE": 0, "CLASSIFICATION_TYPE": "U", "NORAD_CAT_ID": 66658, "ELEMENT_SET_NO": 999, "REV_AT_EPOCH": 434, "BSTAR": 0.00051472804, "MEAN_MOTION_DOT": 5.263e-05, "MEAN_MOTION_DDOT": 0}, "tle": {"line1": "1 66658U 25274J   25359.74737309  .00005263  00000+0  51473-3 0  9993", "line2": "2 66658  97.7400 286.7386 0011463 229.5134 130.5087 14.92709100  4349"}}, "geometry": {"type": "Point", "coordinates": [90.61815026667189, -64.74696592213616]}}, {"type": "Feature", "properties": {"norad_id": 66659, "name": "JACK K", "group": "last-30-days", "lat": -81.0670179703016, "lon": 47.46776641921956, "alt_km": 589.433655731701, "timestamp": "2025-12-26T09:30:52.340631+00:00", "meta": {"OBJECT_NAME": "JACK K", "OBJECT_ID": "2025-274K", "EPOCH": "2025-12-25T17:51:03.116448", "MEAN_MOTION": 14.92878978, "ECCENTRICITY": 0.00122138, "INCLINATION": 97.7403, "RA_OF_ASC_NODE": 286.7439, "ARG_OF_PERICENTER": 231.5343, "MEAN_ANOMALY": 128.4781, "EPHEMERIS_TYPE": 0, "CLASSIFICATION_TYPE": "U", "NORAD_CAT_ID": 66659, "ELEMENT_SET_NO": 999, "REV_AT_EPOCH": 434, "BSTAR": 0.00032013564, "MEAN_MOTION_DOT": 3.265e-05, "MEAN_MOTION_DDOT": 0}, "tle": {"line1": "1 66659U 25274K   25359.74378607  .00003265  00000+0  32014-3 0  9996", "line2": "2 66659  97.7403 286.7439 0012213 231.5343 128.4781 14.92878978  4348"}}, "geometry": {"type": "Point", "coordinates": [47.46776641921956, -81.0670179703016]}}, {"type": "Feature", "properties": {"norad_id": 66660, "name": "K-HERO", "group": "last-30-days", "lat": -76.09366110004399, "lon": -39.28316999874685, "alt_km": 590.2323789377524, "timestamp": "2025-12-26T09:30:52.340641+00:00", "meta": {"OBJECT_NAME": "K-HERO", "OBJECT_ID": "2025-274L", "EPOCH": "2025-12-25T19:23:20.955552", "MEAN_MOTION": 14.93030361, "ECCENTRICITY": 0.00128508, "INCLINATION": 97.7404, "RA_OF_ASC_NODE": 286.8151, "ARG_OF_PERICENTER": 232.0966, "MEAN_ANOMALY": 127.9092, "EPHEMERIS_TYPE": 0, "CLASSIFICATION_TYPE": "U", "NORAD_CAT_ID": 66660, "ELEMENT_SET_NO": 999, "REV_AT_EPOCH": 435, "BSTAR": 0.00030941954, "MEAN_MOTION_DOT": 3.167e-05, "MEAN_MOTION_DDOT": 0}, "tle": {"line1": "1 66660U 25274L   25359.80788143  .00003167  00000+0  30942-3 0  9994", "line2": "2 66660  97.7404 286.8151 0012850 232.0966 127.9092 14.93030361  4354"}}, "geometry": {"type": "Point", "coordinates": [-39.28316999874685, -76.09366110004399]}}, {"type": "Feature", "properties": {"norad_id": 66661, "name": "SNUGLITE-III", "group": "last-30-days", "lat": -62.19135238351216, "lon": -57.65655396143362, "alt_km": 591.3184734396655, "timestamp": "2025-12-26T09:30:52.340651+00:00", "meta": {"OBJECT_NAME": "SNUGLITE-III", "OBJECT_ID": "2025-274M", "EPOCH": "2025-12-25T17:42:50.630400", "MEAN_MOTION": 14.93161533, "ECCENTRICITY": 0.00134664, "INCLINATION": 97.7401, "RA_OF_ASC_NODE": 286.7518, "ARG_OF_PERICENTER": 233.865, "MEAN_ANOMALY": 126.1324, "EPHEMERIS_TYPE": 0, "CLASSIFICATION_TYPE": "U", "NORAD_CAT_ID": 66661, "ELEMENT_SET_NO": 999, "REV_AT_EPOCH": 434, "BSTAR": 0.00027773641, "MEAN_MOTION_DOT": 2.847e-05, "MEAN_MOTION_DDOT": 0}, "tle": {"line1": "1 66661U 25274M   25359.73808600  .00002847  00000+0  27774-3 0  9991", "line2": "2 66661  97.7401 286.7518 0013466 233.8650 126.1324 14.93161533  4345"}}, "geometry": {"type": "Point", "coordinates": [-57.65655396143362, -62.19135238351216]}}, {"type": "Feature", "properties": {"norad_id": 66662, "name": "2025-274N", "group": "last-30-days", "lat": -56.35465044745216, "lon": -60.805108321458476, "alt_km": 591.8904526470196, "timestamp": "2025-12-26T09:30:52.340661+00:00", "meta": {"OBJECT_NAME": "2025-274N", "OBJECT_ID": "2025-274N", "EPOCH": "2025-12-25T17:41:15.360576", "MEAN_MOTION": 14.93217933, "ECCENTRICITY": 0.00139066, "INCLINATION": 97.7402, "RA_OF_ASC_NODE": 286.7537, "ARG_OF_PERICENTER": 233.6564, "MEAN_ANOMALY": 126.3373, "EPHEMERIS_TYPE": 0, "CLASSIFICATION_TYPE": "U", "NORAD_CAT_ID": 66662, "ELEMENT_SET_NO": 999, "REV_AT_EPOCH": 434, "BSTAR": 0.00029061872, "MEAN_MOTION_DOT": 2.986e-05, "MEAN_MOTION_DDOT": 0}, "tle": {"line1": "1 66662U 25274N   25359.73698334  .00002986  00000+0  29062-3 0  9999", "line2": "2 66662  97.7402 286.7537 0013906 233.6564 126.3373 14.93217933  4341"}}, "geometry": {"type": "Point", "coordinates": [-60.805108321458476, -56.35465044745216]}}, {"type": "Feature", "properties": {"norad_id": 66663, "name": "KSLV-II R/B", "group": "last-30-days", "lat": 34.55614077615229, "lon": -77.76259206495149, "alt_km": 594.4064808848725, "timestamp": "2025-12-26T09:30:52.340671+00:00", "meta": {"OBJECT_NAME": "KSLV-II R/B", "OBJECT_ID": "2025-274P", "EPOCH": "2025-12-23T05:59:25.426176", "MEAN_MOTION": 14.97536982, "ECCENTRICITY": 0.00600006, "INCLINATION": 97.7435, "RA_OF_ASC_NODE": 284.4956, "ARG_OF_PERICENTER": 282.7951, "MEAN_ANOMALY": 76.657, "EPHEMERIS_TYPE": 0, "CLASSIFICATION_TYPE": "U", "NORAD_CAT_ID": 66663, "ELEMENT_SET_NO": 999, "REV_AT_EPOCH": 398, "BSTAR": 0.0011394408, "MEAN_MOTION_DOT": 0.00013749, "MEAN_MOTION_DDOT": 0}, "tle": {"line1": "1 66663U 25274P   25357.24959984  .00013749  00000+0  11394-2 0  9992", "line2": "2 66663  97.7435 284.4956 0060000 282.7951  76.6570 14.97536982  3987"}}, "geometry": {"type": "Point", "coordinates": [-77.76259206495149, 34.55614077615229]}}, {"type": "Feature", "properties": {"norad_id": 66664, "name": "SOYUZ-MS 28", "group": "last-30-days", "lat": -38.2224513525503, "lon": 36.2375779903423, "alt_km": 419.1377034729967, "timestamp": "2025-12-26T09:30:52.340684+00:00", "meta": {"OBJECT_NAME": "SOYUZ-MS 28", "OBJECT_ID": "2025-275A", "EPOCH": "2025-12-25T21:21:30.151584", "MEAN_MOTION": 15.49823805, "ECCENTRICITY": 0.0003235, "INCLINATION": 51.6319, "RA_OF_ASC_NODE": 77.3524, "ARG_OF_PERICENTER": 301.523, "MEAN_ANOMALY": 58.5443, "EPHEMERIS_TYPE": 0, "CLASSIFICATION_TYPE": "U", "NORAD_CAT_ID": 66664, "ELEMENT_SET_NO": 999, "REV_AT_EPOCH": 448, "BSTAR": 0.00025321, "MEAN_MOTION_DOT": 0.00013933, "MEAN_MOTION_DDOT": 0}, "tle": {"line1": "1 66664U 25275A   25359.88993231  .00013933  00000+0  25321-3 0  9990", "line2": "2 66664  51.6319  77.3524 0003235 301.5230  58.5443 15.49823805  4480"}}, "geometry": {"type": "Point", "coordinates": [36.2375779903423, -38.2224513525503]}}, {"type": "Feature", "properties": {"norad_id": 66666, "name": "FORMOSAT-8A", "group": "last-30-days", "lat": 21.95930816853534, "lon": -104.75450839768678, "alt_km": 563.0089135407525, "timestamp": "2025-12-26T09:30:52.340695+00:00", "meta": {"OBJECT_NAME": "FORMOSAT-8A", "OBJECT_ID": "2025-276A", "EPOCH": "2025-12-26T04:00:42.846048", "MEAN_MOTION": 15.0036597, "ECCENTRICITY": 0.0004075, "INCLINATION": 97.6575, "RA_OF_ASC_NODE": 71.9101, "ARG_OF_PERICENTER": 183.3671, "MEAN_ANOMALY": 176.7526, "EPHEMERIS_TYPE": 0, "CLASSIFICATION_TYPE": "U", "NORAD_CAT_ID": 66666, "ELEMENT_SET_NO": 999, "REV_AT_EPOCH": 410, "BSTAR": 0.00034916, "MEAN_MOTION_DOT": 4.326e-05, "MEAN_MOTION_DDOT": 0}, "tle": {"line1": "1 66666U 25276A   25360.16716257  .00004326  00000+0  34916-3 0  9993", "line2": "2 66666  97.6575  71.9101 0004075 183.3671 176.7526 15.00365970  4100"}}, "geometry": {"type": "Point", "coordinates": [-104.75450839768678, 21.95930816853534]}}]}